{"type": "FeatureCollection", "features": [ {"type": "Feature", "properties": {"norad_id": 66564, "name": "STARLINK-35358", "group": "last-30-days", "lat": 23.977541128645992, "lon": -172.95444378619212, "alt_km": 442.0580216622493, "timestamp": "2025-12-27T08:36:17.075533+00:00", "meta": {"OBJECT_NAME": "STARLINK-35358", "OBJECT_ID": "2025-268H", "EPOCH": "2025-12-27T04:00:01.998720", "MEAN_MOTION": 15.41217538, "ECCENTRICITY": 0.000129, "INCLINATION": 43.0002, "RA_OF_ASC_NODE": 36.6594, "ARG_OF_PERICENTER": 279.0374, "MEAN_ANOMALY": 238.9468, "EPHEMERIS_TYPE": 0, "CLASSIFICATION_TYPE": "U", "NORAD_CAT_ID": 66564, "ELEMENT_SET_NO": 999, "REV_AT_EPOCH": 605, "BSTAR": -0.054201, "MEAN_MOTION_DOT": -0.02045786, "MEAN_MOTION_DDOT": 0}, "tle": {"line1": "1 66564U 25268H   25361.16668980 -.02045786  00000+0 -54201-1 0  9997", "line2": "2 66564  43.0002  36.6594 0001290 279.0374 238.9468 15.41217538  6053"}}, "geometry": {"type": "Point", "coordinates": [-172.95444378619212, 23.977541128645992]}}, {"type": "Feature", "properties": {"norad_id": 66565, "name": "STARLINK-35893", "group": "last-30-days", "lat": 16.216997507758926, "lon": -162.6638580322111, "alt_km": 440.6530040576745, "timestamp": "2025-12-27T08:36:17.075544+00:00", "meta": {"OBJECT_NAME": "STARLINK-35893", "OBJECT_ID": "2025-268J", "EPOCH": "2025-12-27T04:00:01.998720", "MEAN_MOTION": 15.42048725, "ECCENTRICITY": 0.0001221, "INCLINATION": 43.0007, "RA_OF_ASC_NODE": 36.6299, "ARG_OF_PERICENTER": 280.2591, "MEAN_ANOMALY": 249.547, "EPHEMERIS_TYPE": 0, "CLASSIFICATION_TYPE": "U", "NORAD_CAT_ID": 66565, "ELEMENT_SET_NO": 999, "REV_AT_EPOCH": 605, "BSTAR": -0.052451, "MEAN_MOTION_DOT": -0.02037062, "MEAN_MOTION_DDOT": 0}, "tle": {"line1": "1 66565U 25268J   25361.16668980 -.02037062  00000+0 -52451-1 0  9991", "line2": "2 66565  43.0007  36.6299 0001221 280.2591 249.5470 15.42048725  6052"}}, "geometry": {"type": "Point", "coordinates": [-162.6638580322111, 16.216997507758926]}}, {"type": "Feature", "properties": {"norad_id": 66566, "name": "STARLINK-35871", "group": "last-30-days", "lat": 10.767481494943542, "lon": -156.27316130412743, "alt_km": 439.6869375304086, "timestamp": "2025-12-27T08:36:17.075554+00:00", "meta": {"OBJECT_NAME": "STARLINK-35871", "OBJECT_ID": "2025-268K", "EPOCH": "2025-12-27T04:00:01.998720", "MEAN_MOTION": 15.42593122, "ECCENTRICITY": 0.0001002, "INCLINATION": 43.0001, "RA_OF_ASC_NODE": 36.6106, "ARG_OF_PERICENTER": 275.7433, "MEAN_ANOMALY": 261.9642, "EPHEMERIS_TYPE": 0, "CLASSIFICATION_TYPE": "U", "NORAD_CAT_ID": 66566, "ELEMENT_SET_NO": 999, "REV_AT_EPOCH": 605, "BSTAR": -0.052553, "MEAN_MOTION_DOT": -0.02074186, "MEAN_MOTION_DDOT": 0}, "tle": {"line1": "1 66566U 25268K   25361.16668980 -.02074186  00000+0 -52553-1 0  9993", "line2": "2 66566  43.0001  36.6106 0001002 275.7433 261.9642 15.42593122  6050"}}, "geometry": {"type": "Point", "coordinates": [-156.27316130412743, 10.767481494943542]}}, {"type": "Feature", "properties": {"norad_id": 66567, "name": "STARLINK-35825", "group": "last-30-days", "lat": 4.770308259056241, "lon": -149.65786032064932, "alt_km": 438.57633336395065, "timestamp": "2025-12-27T08:36:17.075565+00:00", "meta": {"OBJECT_NAME": "STARLINK-35825", "OBJECT_ID": "2025-268L", "EPOCH": "2025-12-27T04:00:01.998720", "MEAN_MOTION": 15.43194033, "ECCENTRICITY": 7.08e-05, "INCLINATION": 43.0003, "RA_OF_ASC_NODE": 36.5892, "ARG_OF_PERICENTER": 280.5919, "MEAN_ANOMALY": 265.5862, "EPHEMERIS_TYPE": 0, "CLASSIFICATION_TYPE": "U", "NORAD_CAT_ID": 66567, "ELEMENT_SET_NO": 999, "REV_AT_EPOCH": 605, "BSTAR": -0.050627, "MEAN_MOTION_DOT": -0.02043151, "MEAN_MOTION_DDOT": 0}, "tle": {"line1": "1 66567U 25268L   25361.16668980 -.02043151  00000+0 -50627-1 0  9992", "line2": "2 66567  43.0003  36.5892 0000708 280.5919 265.5862 15.43194033  6052"}}, "geometry": {"type": "Point", "coordinates": [-149.65786032064932, 4.770308259056241]}}, {"type": "Feature", "properties": {"norad_id": 66568, "name": "STARLINK-35803", "group": "last-30-days", "lat": 11.659196435452815, "lon": -157.2885601877807, "alt_km": 431.9868968546907, "timestamp": "2025-12-27T08:36:17.075576+00:00", "meta": {"OBJECT_NAME": "STARLINK-35803", "OBJECT_ID": "2025-268M", "EPOCH": "2025-12-27T04:00:01.998720", "MEAN_MOTION": 15.45057161, "ECCENTRICITY": 0.0001058, "INCLINATION": 43.0002, "RA_OF_ASC_NODE": 36.6173, "ARG_OF_PERICENTER": 280.2621, "MEAN_ANOMALY": 254.3549, "EPHEMERIS_TYPE": 0, "CLASSIFICATION_TYPE": "U", "NORAD_CAT_ID": 66568, "ELEMENT_SET_NO": 999, "REV_AT_EPOCH": 605, "BSTAR": -0.041086, "MEAN_MOTION_DOT": -0.01794309, "MEAN_MOTION_DDOT": 0}, "tle": {"line1": "1 66568U 25268M   25361.16668980 -.01794309  00000+0 -41086-1 0  9999", "line2": "2 66568  43.0002  36.6173 0001058 280.2621 254.3549 15.45057161  6051"}}, "geometry": {"type": "Point", "coordinates": [-157.2885601877807, 11.659196435452815]}}, {"type": "Feature", "properties": {"norad_id": 66569, "name": "STARLINK-35835", "group": "last-30-days", "lat": -8.573681933317246, "lon": -135.25653275461275, "alt_km": 435.6487842144352, "timestamp": "2025-12-27T08:36:17.075586+00:00", "meta": {"OBJECT_NAME": "STARLINK-35835", "OBJECT_ID": "2025-268N", "EPOCH": "2025-12-27T04:00:01.998720", "MEAN_MOTION": 15.44660973, "ECCENTRICITY": 9.73e-05, "INCLINATION": 42.9996, "RA_OF_ASC_NODE": 36.5441, "ARG_OF_PERICENTER": 272.2828, "MEAN_ANOMALY": 292.521, "EPHEMERIS_TYPE": 0, "CLASSIFICATION_TYPE": "U", "NORAD_CAT_ID": 66569, "ELEMENT_SET_NO": 999, "REV_AT_EPOCH": 605, "BSTAR": -0.048353, "MEAN_MOTION_DOT": -0.02051139, "MEAN_MOTION_DDOT": 0}, "tle": {"line1": "1 66569U 25268N   25361.16668980 -.02051139  00000+0 -48353-1 0  9992", "line2": "2 66569  42.9996  36.5441 0000973 272.2828 292.5210 15.44660973  6053"}}, "geometry": {"type": "Point", "coordinates": [-135.25653275461275, -8.573681933317246]}}, {"type": "Feature", "properties": {"norad_id": 66570, "name": "STARLINK-35834", "group": "last-30-days", "lat": -26.08653628861172, "lon": 4.302961925401747, "alt_km": 479.8672798415273, "timestamp": "2025-12-27T08:36:17.075597+00:00", "meta": {"OBJECT_NAME": "STARLINK-35834", "OBJECT_ID": "2025-268P", "EPOCH": "2025-12-27T04:00:01.998720", "MEAN_MOTION": 15.30139814, "ECCENTRICITY": 0.0001569, "INCLINATION": 43.001, "RA_OF_ASC_NODE": 37.0845, "ARG_OF_PERICENTER": 285.2431, "MEAN_ANOMALY": 56.9908, "EPHEMERIS_TYPE": 0, "CLASSIFICATION_TYPE": "U", "NORAD_CAT_ID": 66570, "ELEMENT_SET_NO": 999, "REV_AT_EPOCH": 605, "BSTAR": -0.087822, "MEAN_MOTION_DOT": -0.02324664, "MEAN_MOTION_DDOT": 0}, "tle": {"line1": "1 66570U 25268P   25361.16668980 -.02324664  00000+0 -87822-1 0  9994", "line2": "2 66570  43.0010  37.0845 0001569 285.2431  56.9908 15.30139814  6050"}}, "geometry": {"type": "Point", "coordinates": [4.302961925401747, -26.08653628861172]}}, {"type": "Feature", "properties": {"norad_id": 66571, "name": "STARLINK-35836", "group": "last-30-days", "lat": -13.647453707487923, "lon": 20.84790807172808, "alt_km": 477.307284142571, "timestamp": "2025-12-27T08:36:17.075608+00:00", "meta": {"OBJECT_NAME": "STARLINK-35836", "OBJECT_ID": "2025-268Q", "EPOCH": "2025-12-27T04:00:01.998720", "MEAN_MOTION": 15.30808847, "ECCENTRICITY": 9.39e-05, "INCLINATION": 43.001, "RA_OF_ASC_NODE": 37.039, "ARG_OF_PERICENTER": 247.3343, "MEAN_ANOMALY": 114.3158, "EPHEMERIS_TYPE": 0, "CLASSIFICATION_TYPE": "U", "NORAD_CAT_ID": 66571, "ELEMENT_SET_NO": 999, "REV_AT_EPOCH": 605, "BSTAR": -0.07345, "MEAN_MOTION_DOT": -0.02017508, "MEAN_MOTION_DDOT": 0}, "tle": {"line1": "1 66571U 25268Q   25361.16668980 -.02017508  00000+0 -73450-1 0  9993", "line2": "2 66571  43.0010  37.0390 0000939 247.3343 114.3158 15.30808847  6052"}}, "geometry": {"type": "Point", "coordinates": [20.84790807172808, -13.647453707487923]}}, {"type": "Feature", "properties": {"norad_id": 66572, "name": "STARLINK-35870", "group": "last-30-days", "lat": 7.8279899211172665, "lon": 44.357812396433346, "alt_km": 470.80757856388936, "timestamp": "2025-12-27T08:36:17.075618+00:00", "meta": {"OBJECT_NAME": "STARLINK-35870", "OBJECT_ID": "2025-268R", "EPOCH": "2025-12-27T04:00:01.998720", "MEAN_MOTION": 15.32237826, "ECCENTRICITY": 0.0001414, "INCLINATION": 43.0014, "RA_OF_ASC_NODE": 36.9651, "ARG_OF_PERICENTER": 258.7716, "MEAN_ANOMALY": 133.6567, "EPHEMERIS_TYPE": 0, "CLASSIFICATION_TYPE": "U", "NORAD_CAT_ID": 66572, "ELEMENT_SET_NO": 999, "REV_AT_EPOCH": 605, "BSTAR": -0.070111, "MEAN_MOTION_DOT": -0.02014962, "MEAN_MOTION_DDOT": 0}, "tle": {"line1": "1 66572U 25268R   25361.16668980 -.02014962  00000+0 -70111-1 0  9996", "line2": "2 66572  43.0014  36.9651 0001414 258.7716 133.6567 15.32237826  6057"}}, "geometry": {"type": "Point", "coordinates": [44.357812396433346, 7.8279899211172665]}}, {"type": "Feature", "properties": {"norad_id": 66573, "name": "STARLINK-35650", "group": "last-30-days", "lat": 19.886808816662665, "lon": 58.669940908394246, "alt_km": 466.6757770945187, "timestamp": "2025-12-27T08:36:17.075629+00:00", "meta": {"OBJECT_NAME": "STARLINK-35650", "OBJECT_ID": "2025-268S", "EPOCH": "2025-12-27T04:00:01.998720", "MEAN_MOTION": 15.33089208, "ECCENTRICITY": 0.0001424, "INCLINATION": 43.0011, "RA_OF_ASC_NODE": 36.9215, "ARG_OF_PERICENTER": 264.3449, "MEAN_ANOMALY": 145.8956, "EPHEMERIS_TYPE": 0, "CLASSIFICATION_TYPE": "U", "NORAD_CAT_ID": 66573, "ELEMENT_SET_NO": 999, "REV_AT_EPOCH": 599, "BSTAR": -0.069307, "MEAN_MOTION_DOT": -0.02043423, "MEAN_MOTION_DDOT": 0}, "tle": {"line1": "1 66573U 25268S   25361.16668980 -.02043423  00000+0 -69307-1 0  9996", "line2": "2 66573  43.0011  36.9215 0001424 264.3449 145.8956 15.33089208  5997"}}, "geometry": {"type": "Point", "coordinates": [58.669940908394246, 19.886808816662665]}}]}